NORAD_CAT_ID,OBJECT_NAME,OBJECT_TYPE,EPOCH,MEAN_MOTION,ECCENTRICITY,INCLINATION,RA_OF_ASC_NODE,ARG_OF_PERICENTER,MEAN_ANOMALY,BSTAR,MEAN_MOTION_DOT,MEAN_MOTION_DDOT,TLE_LINE0,TLE_LINE1,TLE_LINE2,SEMIMAJOR_AXIS,PERIOD,APOGEE,PERIGEE,DECAYED
52600.0,STARLINK-4026,PAYLOAD,2022-05-30 14:00:01,15.73177396,0.0001494,53.2153,1.7011,113.6155,1.5619999999999998,0.00052409,0.00073507,0.0,0 STARLINK-4026,1 52600U 22052C   22150.58334491  .00073507  00000-0  52409-3 0  9996,2 52600  53.2153   1.7011 0001494 113.6155   1.5620 15.73177396  1301,6727.96,91.534,350.83,348.819,0.0
52600.0,STARLINK-4026,PAYLOAD,2022-05-30 22:00:00,15.73218024,0.0001295,53.215,0.0537,104.3934,99.712,0.0002498,0.00034609,0.0,0 STARLINK-4026,1 52600U 22052C   22150.91667824  .00034609  00000-0  24980-3 0  9995,2 52600  53.2150   0.0537 0001295 104.3934  99.7120 15.73218024  2910,6727.844,91.532,350.58,348.838,0.0
52600.0,STARLINK-4026,PAYLOAD,2022-05-31 04:00:00,15.73264373,0.0001141,53.2147,358.8159,106.8156,73.9939,-0.00061,-0.00085596,0.0,0 STARLINK-4026,1 52600U 22052C   22151.16667824 -.00085596  00000-0 -61000-3 0  9990,2 52600  53.2147 358.8159 0001141 106.8156  73.9939 15.73264373  2957,6727.712,91.529,350.344,348.809,0.0
52600.0,STARLINK-4026,PAYLOAD,2022-05-31 06:00:02,15.73241329,0.0001148,53.2149,358.4027,111.4143,181.7111,-0.0003865,-0.00054606,0.0,0 STARLINK-4026,1 52600U 22052C   22151.25002315 -.00054606  00000-0 -38650-3 0  9991,2 52600  53.2149 358.4027 0001148 111.4143 181.7111 15.73241329  1308,6727.776999999999,91.531,350.415,348.87,0.0
52600.0,STARLINK-4026,PAYLOAD,2022-05-31 13:54:27,15.73245745,0.0001323,53.2147,356.7712,108.8386,251.2778,0.00023089,0.0003197,0.0,0 STARLINK-4026,1 52600U 22052C   22151.57948050  .00031970  00000-0  23089-3 0  9998,2 52600  53.2147 356.7712 0001323 108.8386 251.2778 15.73245745  3010,6727.765,91.531,350.52,348.74,0.0
52600.0,STARLINK-4026,PAYLOAD,2022-05-31 22:00:00,15.73182968,0.000121,53.2154,355.1046,101.3123,9.6623,0.00044705,0.00062543,0.0,0 STARLINK-4026,1 52600U 22052C   22151.91667824  .00062543  00000-0  44705-3 0  9991,2 52600  53.2154 355.1046 0001210 101.3123   9.6623 15.73182968  3070,6727.944,91.534,350.62300000000016,348.995,0.0
52600.0,STARLINK-4026,PAYLOAD,2022-06-01 12:00:00,15.73251995,0.0001079,53.215,352.2154,117.3668,59.271,-0.00025122,-0.00035805,0.0,0 STARLINK-4026,1 52600U 22052C   22152.50001157 -.00035805  00000-0 -25122-3 0  9993,2 52600  53.2150 352.2154 0001079 117.3668  59.2710 15.73251995  3163,6727.746999999999,91.53,350.338,348.886,0.0
52600.0,STARLINK-4026,PAYLOAD,2022-06-01 20:00:01,15.73235192,9.82e-05,53.2148,350.5679,103.4668,162.1429,-0.00057067,-0.00080068,0.0,0 STARLINK-4026,1 52600U 22052C   22152.83334491 -.00080068  00000-0 -57067-3 0  9993,2 52600  53.2148 350.5679 0000982 103.4668 162.1429 15.73235192  1307,6727.795,91.531,350.321,348.999,0.0
52600.0,STARLINK-4026,PAYLOAD,2022-06-02 19:16:12,15.73236087,8.950000000000001e-05,53.2157,345.7678,112.2746,247.8369,0.00013472,0.00018357,0.0,0 STARLINK-4026,1 52600U 22052C   22153.80292668  .00018357  00000-0  13472-3 0  9992,2 52600  53.2157 345.7678 0000895 112.2746 247.8369 15.73236087  3366,6727.792,91.531,350.259,349.055,0.0
52600.0,STARLINK-4026,PAYLOAD,2022-06-03 13:33:58,15.73221295,0.0001633,53.2141,341.9946,103.6958,256.4243,6.4441e-05,8.441e-05,0.0,0 STARLINK-4026,1 52600U 22052C   22154.56526021  .00008441  00000-0  64441-4 0  9995,2 52600  53.2141 341.9946 0001633 103.6958 256.4243 15.73221295  3480,6727.834,91.532,350.798,348.601,0.0
52600.0,STARLINK-4026,PAYLOAD,2022-06-03 15:05:28,15.73053905,0.000542,53.2126,341.6812,321.9645,38.0992,-0.00064692,-0.00089981,0.0,0 STARLINK-4026,1 52600U 22052C   22154.62880612 -.00089981  00000-0 -64692-3 0  9998,2 52600  53.2126 341.6812 0005420 321.9645  38.0992 15.73053905  3495,6728.312,91.542,353.8230000000001,346.53,0.0
52600.0,STARLINK-4026,PAYLOAD,2022-06-03 21:11:29,15.729386300000002,0.0001337,53.2139,340.4240000000001,83.7909,276.3263,-0.00086328,-0.00118749,0.0,0 STARLINK-4026,1 52600U 22052C   22154.88298274 -.00118749  00000-0 -86328-3 0  9998,2 52600  53.2139 340.4240 0001337  83.7909 276.3263 15.72938630  3977,6728.64,91.548,351.405,349.606,0.0
52600.0,STARLINK-4026,PAYLOAD,2022-06-04 03:17:35,15.72699687,0.0001578,53.2149,339.1669,102.8287,257.2909,-0.0012825,-0.00173221,0.0,0 STARLINK-4026,1 52600U 22052C   22155.13721655 -.00173221  00000-0 -12825-2 0  9997,2 52600  53.2149 339.1669 0001578 102.8287 257.2909 15.72699687  3574,6729.321999999999,91.562,352.249,350.125,0.0
52600.0,STARLINK-4026,PAYLOAD,2022-06-04 12:26:38,15.72671748,0.0001525,53.2153,337.2818,172.4723,187.632,-0.00084009,-0.00114332,0.0,0 STARLINK-4026,1 52600U 22052C   22155.51849959 -.00114332  00000-0 -84009-3 0  9999,2 52600  53.2153 337.2818 0001525 172.4723 187.6320 15.72671748  3632,6729.401999999999,91.564,352.293,350.24,0.0
52600.0,STARLINK-4026,PAYLOAD,2022-06-04 12:26:40,15.72624892,0.0001366,53.2147,337.2816,107.7209,252.396,-0.00094568,-0.00128157,0.0,0 STARLINK-4026,1 52600U 22052C   22155.51852394 -.00128157  00000-0 -94568-3 0  9997,2 52600  53.2147 337.2816 0001366 107.7209 252.3960 15.72624892  3634,6729.535,91.567,352.32,350.481,0.0
52600.0,STARLINK-4026,PAYLOAD,2022-06-05 22:00:00,15.69662632,0.0001007,53.2174,330.3864,90.7804,259.283,-0.0064378999999999,-0.00715207,0.0,0 STARLINK-4026,1 52600U 22052C   22156.91667824 -.00715207  00000-0 -64379-2 0  9998,2 52600  53.2174 330.3864 0001007  90.7804 259.2830 15.69662632  3851,6737.999,91.739,360.543,359.186,0.0
52600.0,STARLINK-4026,PAYLOAD,2022-06-06 14:00:01,15.68643802,0.0001195,53.2175,327.1055,75.536,82.6511,-0.0067318,-0.00716737,0.0,0 STARLINK-4026,1 52600U 22052C   22157.58334491 -.00716737  00000-0 -67318-2 0  9998,2 52600  53.2175 327.1055 0001195  75.5360  82.6511 15.68643802  1303,6740.917,91.799,363.587,361.976,0.0
52600.0,STARLINK-4026,PAYLOAD,2022-06-06 22:00:00,15.68130389,0.0001204,53.2175,325.4693,103.2176,138.1119,-0.0068134,-0.00710725,0.0,0 STARLINK-4026,1 52600U 22052C   22157.91667824 -.00710725  00000-0 -68134-2 0  9992,2 52600  53.2175 325.4693 0001204 103.2176 138.1119 15.68130389  4010,6742.388000000001,91.829,365.065,363.441,0.0
52600.0,STARLINK-4026,PAYLOAD,2022-06-07 14:00:01,15.67115851,0.000105,53.2178,322.1963,73.4167,332.358,-0.0072015,-0.00719747,0.0,0 STARLINK-4026,1 52600U 22052C   22158.58334491 -.00719747  00000-0 -72015-2 0  9993,2 52600  53.2178 322.1963 0001050  73.4167 332.3580 15.67115851  1309,6745.297,91.889,367.871,366.454,0.0
52600.0,STARLINK-4026,PAYLOAD,2022-06-07 22:00:00,15.66600091,0.0001143,53.2173,320.5636,72.7587,54.32100000000001,-0.0072423999999999,-0.00709674,0.0,0 STARLINK-4026,1 52600U 22052C   22158.91667824 -.00709674  00000-0 -72424-2 0  9991,2 52600  53.2173 320.5636 0001143  72.7587  54.3210 15.66600091  4177,6746.778,91.919,369.414,367.872,0.0
52600.0,STARLINK-4026,PAYLOAD,2022-06-08 14:00:01,15.65584427,0.0001157,53.2175,317.298,78.6461,209.2022,-0.0076281,-0.00716729,0.0,0 STARLINK-4026,1 52600U 22052C   22159.58334491 -.00716729  00000-0 -76281-2 0  9990,2 52600  53.2175 317.2980 0001157  78.6461 209.2022 15.65584427  1302,6749.695,91.978,372.341,370.78,0.0
52600.0,STARLINK-4026,PAYLOAD,2022-06-08 22:00:01,15.65072919,0.0001012,53.2172,315.6690000000001,104.3721,263.0065,-0.0077483,-0.00713452,0.0,0 STARLINK-4026,1 52600U 22052C   22159.91668981 -.00713452  00000-0 -77483-2 0  9996,2 52600  53.2172 315.6690 0001012 104.3721 263.0065 15.65072919  4334,6751.166,92.008,373.714,372.348,0.0
52600.0,STARLINK-4026,PAYLOAD,2022-06-09 14:00:01,15.64053185,0.0001268,53.2176,312.4109,68.5391,95.868,-0.0080802,-0.00714277,0.0,0 STARLINK-4026,1 52600U 22052C   22160.58334491 -.00714277  00000-0 -80802-2 0  9992,2 52600  53.2176 312.4109 0001268  68.5391  95.8680 15.64053185  1306,6754.1,92.068,376.822,375.109,0.0
52600.0,STARLINK-4026,PAYLOAD,2022-06-09 22:00:00,15.635427800000002,0.0001169,53.2173,310.7853,93.8425,148.1911,-0.0082271,-0.00712781,0.0,0 STARLINK-4026,1 52600U 22052C   22160.91667824 -.00712781  00000-0 -82271-2 0  9998,2 52600  53.2173 310.7853 0001169  93.8425 148.1911 15.63542780  1301,6755.57,92.099,378.225,376.645,0.0
52600.0,STARLINK-4026,PAYLOAD,2022-06-10 00:00:00,15.63417512,0.0001022,53.2173,310.3784,97.7939,253.5502,-0.0083163,-0.00716575,0.0,0 STARLINK-4026,1 52600U 22052C   22161.00001157 -.00716575  00000-0 -83163-2 0  9996,2 52600  53.2173 310.3784 0001022  97.7939 253.5502 15.63417512  4495,6755.931,92.106,378.486,377.105,0.0
52600.0,STARLINK-4026,PAYLOAD,2022-06-10 14:00:01,15.62525025,0.0001142,53.2176,307.5348,62.1068,333.3426,-0.0086185,-0.00716921,0.0,0 STARLINK-4026,1 52600U 22052C   22161.58334491 -.00716921  00000-0 -86185-2 0  9991,2 52600  53.2176 307.5348 0001142  62.1068 333.3426 15.62525025  1301,6758.503000000002,92.159,381.14,379.596,0.0
52600.0,STARLINK-4026,PAYLOAD,2022-06-10 22:00:00,15.62014345,0.0001103,53.2171,305.9126,79.4641,31.7738,-0.0087667,-0.00714958,0.0,0 STARLINK-4026,1 52600U 22052C   22161.91667824 -.00714958  00000-0 -87667-2 0  9991,2 52600  53.2171 305.9126 0001103  79.4641  31.7738 15.62014345  1300,6759.976,92.189,382.587,381.096,0.0
52600.0,STARLINK-4026,PAYLOAD,2022-06-11 06:00:00,15.61502994,0.0001217,53.2172,304.289,73.5984,112.8174,-0.0089188,-0.00713165,0.0,0 STARLINK-4026,1 52600U 22052C   22162.25001157 -.00713165  00000-0 -89188-2 0  9999,2 52600  53.2172 304.2890 0001217  73.5984 112.8174 15.61502994  4693,6761.4519999999975,92.219,384.14,382.494,0.0
52600.0,STARLINK-4026,PAYLOAD,2022-06-11 22:00:00,15.60485055,0.0001032,53.2173,301.0514,91.9784,242.9487,-0.0093045,-0.0071499,0.0,0 STARLINK-4026,1 52600U 22052C   22162.91667824 -.00714990  00000-0 -93045-2 0  9995,2 52600  53.2173 301.0514 0001032  91.9784 242.9487 15.60485055  1303,6764.392,92.279,386.955,385.559,0.0
